CCSDS_OMM_VERS = 2.0
CREATION_DATE  = 
ORIGINATOR     = 

OBJECT_NAME    = STARLINK-36704
OBJECT_ID      = 2026-025E
CENTER_NAME    = EARTH
REF_FRAME      = TEME
TIME_SYSTEM    = UTC
MEAN_ELEMENT_THEORY = SGP/SGP4

EPOCH          = 2026-02-23T06:00:02.000160
MEAN_MOTION    = 15.80918689
ECCENTRICITY   = .00017188
INCLINATION    = 97.2806
RA_OF_ASC_NODE = 165.0838
ARG_OF_PERICENTER = 74.0080
MEAN_ANOMALY   = 332.6101

EPHEMERIS_TYPE = 0
CLASSIFICATION_TYPE = U
NORAD_CAT_ID   = 67697
ELEMENT_SET_NO = 999
REV_AT_EPOCH   = 353
BSTAR          = -.23448186E-2
MEAN_MOTION_DOT = -.429957E-2
MEAN_MOTION_DDOT = 0

CCSDS_OMM_VERS = 2.0
CREATION_DATE  = 
ORIGINATOR     = 

OBJECT_NAME    = STARLINK-36697
OBJECT_ID      = 2026-025F
CENTER_NAME    = EARTH
REF_FRAME      = TEME
TIME_SYSTEM    = UTC
MEAN_ELEMENT_THEORY = SGP/SGP4

EPOCH          = 2026-02-23T06:00:02.000160
MEAN_MOTION    = 15.80756956
ECCENTRICITY   = .00015022
INCLINATION    = 97.2811
RA_OF_ASC_NODE = 165.0881
ARG_OF_PERICENTER = 90.7587
MEAN_ANOMALY   = 323.3810

EPHEMERIS_TYPE = 0
CLASSIFICATION_TYPE = U
NORAD_CAT_ID   = 67698
ELEMENT_SET_NO = 999
REV_AT_EPOCH   = 348
BSTAR          = .3560013E-3
MEAN_MOTION_DOT = .68402E-3
MEAN_MOTION_DDOT = 0

CCSDS_OMM_VERS = 2.0
CREATION_DATE  = 
ORIGINATOR     = 

OBJECT_NAME    = STARLINK-36716
OBJECT_ID      = 2026-025G
CENTER_NAME    = EARTH
REF_FRAME      = TEME
TIME_SYSTEM    = UTC
MEAN_ELEMENT_THEORY = SGP/SGP4

EPOCH          = 2026-02-23T06:00:02.000160
MEAN_MOTION    = 15.80788273
ECCENTRICITY   = .00014644
INCLINATION    = 97.2806
RA_OF_ASC_NODE = 165.0914
ARG_OF_PERICENTER = 95.8266
MEAN_ANOMALY   = 328.1206

EPHEMERIS_TYPE = 0
CLASSIFICATION_TYPE = U
NORAD_CAT_ID   = 67699
ELEMENT_SET_NO = 999
REV_AT_EPOCH   = 368
BSTAR          = .46128568E-3
MEAN_MOTION_DOT = .8901E-3
MEAN_MOTION_DDOT = 0

CCSDS_OMM_VERS = 2.0
CREATION_DATE  = 
ORIGINATOR     = 

OBJECT_NAME    = STARLINK-36712
OBJECT_ID      = 2026-025H
CENTER_NAME    = EARTH
REF_FRAME      = TEME
TIME_SYSTEM    = UTC
MEAN_ELEMENT_THEORY = SGP/SGP4

EPOCH          = 2026-02-23T06:00:02.000160
MEAN_MOTION    = 15.80801518
ECCENTRICITY   = .00013873
INCLINATION    = 97.2786
RA_OF_ASC_NODE = 165.0952
ARG_OF_PERICENTER = 96.8541
MEAN_ANOMALY   = 336.7391

EPHEMERIS_TYPE = 0
CLASSIFICATION_TYPE = U
NORAD_CAT_ID   = 67700
ELEMENT_SET_NO = 999
REV_AT_EPOCH   = 348
BSTAR          = .4599532E-4
MEAN_MOTION_DOT = .8672E-4
MEAN_MOTION_DDOT = 0

CCSDS_OMM_VERS = 2.0
CREATION_DATE  = 
ORIGINATOR     = 

OBJECT_NAME    = STARLINK-36713
OBJECT_ID      = 2026-025J
CENTER_NAME    = EARTH
REF_FRAME      = TEME
TIME_SYSTEM    = UTC
MEAN_ELEMENT_THEORY = SGP/SGP4

EPOCH          = 2026-02-23T06:00:02.000160
MEAN_MOTION    = 15.80790171
ECCENTRICITY   = .00007258
INCLINATION    = 97.2780
RA_OF_ASC_NODE = 165.0982
ARG_OF_PERICENTER = 83.1016
MEAN_ANOMALY   = 0.1825

EPHEMERIS_TYPE = 0
CLASSIFICATION_TYPE = U
NORAD_CAT_ID   = 67701
ELEMENT_SET_NO = 999
REV_AT_EPOCH   = 368
BSTAR          = .18362931E-3
MEAN_MOTION_DOT = .35131E-3
MEAN_MOTION_DDOT = 0

CCSDS_OMM_VERS = 2.0
CREATION_DATE  = 
ORIGINATOR     = 

OBJECT_NAME    = STARLINK-36695
OBJECT_ID      = 2026-025K
CENTER_NAME    = EARTH
REF_FRAME      = TEME
TIME_SYSTEM    = UTC
MEAN_ELEMENT_THEORY = SGP/SGP4

EPOCH          = 2026-02-23T06:00:02.000160
MEAN_MOTION    = 15.79856273
ECCENTRICITY   = .00015362
INCLINATION    = 97.2753
RA_OF_ASC_NODE = 165.1006
ARG_OF_PERICENTER = 80.1452
MEAN_ANOMALY   = 10.8408

EPHEMERIS_TYPE = 0
CLASSIFICATION_TYPE = U
NORAD_CAT_ID   = 67702
ELEMENT_SET_NO = 999
REV_AT_EPOCH   = 353
BSTAR          = -.11708673E-1
MEAN_MOTION_DOT = -.1878759E-1
MEAN_MOTION_DDOT = 0

CCSDS_OMM_VERS = 2.0
CREATION_DATE  = 
ORIGINATOR     = 

OBJECT_NAME    = STARLINK-36630
OBJECT_ID      = 2026-025L
CENTER_NAME    = EARTH
REF_FRAME      = TEME
TIME_SYSTEM    = UTC
MEAN_ELEMENT_THEORY = SGP/SGP4

EPOCH          = 2026-02-23T06:00:02.000160
MEAN_MOTION    = 15.80815967
ECCENTRICITY   = .00014394
INCLINATION    = 97.2755
RA_OF_ASC_NODE = 165.1049
ARG_OF_PERICENTER = 89.0846
MEAN_ANOMALY   = 10.1699

EPHEMERIS_TYPE = 0
CLASSIFICATION_TYPE = U
NORAD_CAT_ID   = 67703
ELEMENT_SET_NO = 999
REV_AT_EPOCH   = 353
BSTAR          = -.43070247E-4
MEAN_MOTION_DOT = -.8384E-4
MEAN_MOTION_DDOT = 0

CCSDS_OMM_VERS = 2.0
CREATION_DATE  = 
ORIGINATOR     = 

OBJECT_NAME    = STARLINK-36338
OBJECT_ID      = 2026-025M
CENTER_NAME    = EARTH
REF_FRAME      = TEME
TIME_SYSTEM    = UTC
MEAN_ELEMENT_THEORY = SGP/SGP4

EPOCH          = 2026-02-23T06:00:02.000160
MEAN_MOTION    = 15.80784361
ECCENTRICITY   = .00010977
INCLINATION    = 97.2750
RA_OF_ASC_NODE = 165.1089
ARG_OF_PERICENTER = 104.3617
MEAN_ANOMALY   = 5.5270

EPHEMERIS_TYPE = 0
CLASSIFICATION_TYPE = U
NORAD_CAT_ID   = 67704
ELEMENT_SET_NO = 999
REV_AT_EPOCH   = 358
BSTAR          = .3323128E-3
MEAN_MOTION_DOT = .63886E-3
MEAN_MOTION_DDOT = 0

CCSDS_OMM_VERS = 2.0
CREATION_DATE  = 
ORIGINATOR     = 

OBJECT_NAME    = STARLINK-36316
OBJECT_ID      = 2026-025N
CENTER_NAME    = EARTH
REF_FRAME      = TEME
TIME_SYSTEM    = UTC
MEAN_ELEMENT_THEORY = SGP/SGP4

EPOCH          = 2026-02-23T06:00:02.000160
MEAN_MOTION    = 15.80829399
ECCENTRICITY   = .00012725
INCLINATION    = 97.2740
RA_OF_ASC_NODE = 165.1177
ARG_OF_PERICENTER = 82.3883
MEAN_ANOMALY   = 49.2669

EPHEMERIS_TYPE = 0
CLASSIFICATION_TYPE = U
NORAD_CAT_ID   = 67705
ELEMENT_SET_NO = 999
REV_AT_EPOCH   = 358
BSTAR          = -.74018933E-4
MEAN_MOTION_DOT = -.14305E-3
MEAN_MOTION_DDOT = 0

CCSDS_OMM_VERS = 2.0
CREATION_DATE  = 
ORIGINATOR     = 

OBJECT_NAME    = STARLINK-36707
OBJECT_ID      = 2026-025P
CENTER_NAME    = EARTH
REF_FRAME      = TEME
TIME_SYSTEM    = UTC
MEAN_ELEMENT_THEORY = SGP/SGP4

EPOCH          = 2026-02-23T06:00:02.000160
MEAN_MOTION    = 15.80787082
ECCENTRICITY   = .00013672
INCLINATION    = 97.2730
RA_OF_ASC_NODE = 165.1224
ARG_OF_PERICENTER = 70.1813
MEAN_ANOMALY   = 73.0107

EPHEMERIS_TYPE = 0
CLASSIFICATION_TYPE = U
NORAD_CAT_ID   = 67706
ELEMENT_SET_NO = 999
REV_AT_EPOCH   = 337
BSTAR          = .37472443E-3
MEAN_MOTION_DOT = .72136E-3
MEAN_MOTION_DDOT = 0

CCSDS_OMM_VERS = 2.0
CREATION_DATE  = 
ORIGINATOR     = 

OBJECT_NAME    = STARLINK-36645
OBJECT_ID      = 2026-025Q
CENTER_NAME    = EARTH
REF_FRAME      = TEME
TIME_SYSTEM    = UTC
MEAN_ELEMENT_THEORY = SGP/SGP4

EPOCH          = 2026-02-23T06:00:02.000160
MEAN_MOTION    = 15.80834674
ECCENTRICITY   = .00014022
INCLINATION    = 97.2738
RA_OF_ASC_NODE = 165.1126
ARG_OF_PERICENTER = 80.9536
MEAN_ANOMALY   = 41.3746

EPHEMERIS_TYPE = 0
CLASSIFICATION_TYPE = U
NORAD_CAT_ID   = 67707
ELEMENT_SET_NO = 999
REV_AT_EPOCH   = 313
BSTAR          = -.28170517E-3
MEAN_MOTION_DOT = -.53816E-3
MEAN_MOTION_DDOT = 0

CCSDS_OMM_VERS = 2.0
CREATION_DATE  = 
ORIGINATOR     = 

OBJECT_NAME    = STARLINK-36287
OBJECT_ID      = 2026-025R
CENTER_NAME    = EARTH
REF_FRAME      = TEME
TIME_SYSTEM    = UTC
MEAN_ELEMENT_THEORY = SGP/SGP4

EPOCH          = 2026-02-23T06:00:02.000160
MEAN_MOTION    = 15.80787642
ECCENTRICITY   = .00014628
INCLINATION    = 97.2713
RA_OF_ASC_NODE = 165.1257
ARG_OF_PERICENTER = 85.2095
MEAN_ANOMALY   = 68.0263

EPHEMERIS_TYPE = 0
CLASSIFICATION_TYPE = U
NORAD_CAT_ID   = 67708
ELEMENT_SET_NO = 999
REV_AT_EPOCH   = 369
BSTAR          = .39837459E-3
MEAN_MOTION_DOT = .76741E-3
MEAN_MOTION_DDOT = 0

