STARLINK-36704          
1 67697U 26025E   26054.25002315 -.00429957  00000+0 -23448-2 0  9995
2 67697  97.2806 165.0838 0001718  74.0080 332.6101 15.80918689  3538
STARLINK-36697          
1 67698U 26025F   26054.25002315  .00068402  00000+0  35600-3 0  9992
2 67698  97.2811 165.0881 0001502  90.7587 323.3810 15.80756956  3486
STARLINK-36716          
1 67699U 26025G   26054.25002315  .00089010  00000+0  46129-3 0  9999
2 67699  97.2806 165.0914 0001464  95.8266 328.1206 15.80788273  3686
STARLINK-36712          
1 67700U 26025H   26054.25002315  .00008672  00000+0  45995-4 0  9998
2 67700  97.2786 165.0952 0001387  96.8541 336.7391 15.80801518  3485
STARLINK-36713          
1 67701U 26025J   26054.25002315  .00035131  00000+0  18363-3 0  9997
2 67701  97.2780 165.0982 0000725  83.1016   0.1825 15.80790171  3682
STARLINK-36695          
1 67702U 26025K   26054.25002315 -.01878759  00000+0 -11709-1 0  9997
2 67702  97.2753 165.1006 0001536  80.1452  10.8408 15.79856273  3536
STARLINK-36630          
1 67703U 26025L   26054.25002315 -.00008384  00000+0 -43070-4 0  9995
2 67703  97.2755 165.1049 0001439  89.0846  10.1699 15.80815967  3535
STARLINK-36338          
1 67704U 26025M   26054.25002315  .00063886  00000+0  33231-3 0  9999
2 67704  97.2750 165.1089 0001097 104.3617   5.5270 15.80784361  3583
STARLINK-36316          
1 67705U 26025N   26054.25002315 -.00014305  00000+0 -74019-4 0  9994
2 67705  97.2740 165.1177 0001272  82.3883  49.2669 15.80829399  3584
STARLINK-36707          
1 67706U 26025P   26054.25002315  .00072136  00000+0  37472-3 0  9990
2 67706  97.2730 165.1224 0001367  70.1813  73.0107 15.80787082  3371
STARLINK-36645          
1 67707U 26025Q   26054.25002315 -.00053816  00000+0 -28171-3 0  9993
2 67707  97.2738 165.1126 0001402  80.9536  41.3746 15.80834674  3133
STARLINK-36287          
1 67708U 26025R   26054.25002315  .00076741  00000+0  39837-3 0  9995
2 67708  97.2713 165.1257 0001462  85.2095  68.0263 15.80787642  3699
